sat12879
1 12879U 81098A   20046.89673288  .00000005  00000-0 -33386-4 0  9999
2 12879  82.5999 204.8245 0007925 117.2810  36.0716 12.42352245282295
